NORAD_CAT_ID,OBJECT_NAME,OBJECT_TYPE,EPOCH,MEAN_MOTION,ECCENTRICITY,INCLINATION,RA_OF_ASC_NODE,ARG_OF_PERICENTER,MEAN_ANOMALY,BSTAR,MEAN_MOTION_DOT,MEAN_MOTION_DDOT,TLE_LINE0,TLE_LINE1,TLE_LINE2,SEMIMAJOR_AXIS,PERIOD,APOGEE,PERIGEE,DECAYED
53567.0,STARLINK-4585,PAYLOAD,2022-11-09 14:00:01,15.22595114,0.0001337,53.2162,113.8009,72.4774,123.8107,-0.055225,-0.01195003,0.0,0 STARLINK-4585,1 53567U 22101AS  22313.58334491 -.01195003  00000-0 -55225-1 0  9991,2 53567  53.2162 113.8009 0001337  72.4774 123.8107 15.22595114  1305,6876.153,94.575,498.93800000000016,497.099,0.0
53567.0,STARLINK-4585,PAYLOAD,2022-11-09 22:00:01,15.21771737,0.0001434,53.2162,112.2751,67.003,156.9386,-0.056012,-0.01183751,0.0,0 STARLINK-4585,1 53567U 22101AS  22313.91668981 -.01183751  00000-0 -56012-1 0  9994,2 53567  53.2162 112.2751 0001434  67.0030 156.9386 15.21771737 12893,6878.6330000000025,94.627,501.485,499.512,0.0
53567.0,STARLINK-4585,PAYLOAD,2022-11-10 00:00:00,15.21545016,0.0001274999999999,53.2166,111.8931,67.2876,253.3461,-0.0548049999999999,-0.01153008,0.0,0 STARLINK-4585,1 53567U 22101AS  22314.00001157 -.01153008  00000-0 -54805-1 0  9991,2 53567  53.2166 111.8931 0001275  67.2876 253.3461 15.21545016  1304,6879.316999999999,94.641,502.059,500.305,0.0
53567.0,STARLINK-4585,PAYLOAD,2022-11-10 14:00:01,15.20154985,0.0001351,53.2161,109.2246,80.7641,195.344,-0.059477,-0.01197309,0.0,0 STARLINK-4585,1 53567U 22101AS  22314.58334491 -.01197309  00000-0 -59477-1 0  9996,2 53567  53.2161 109.2246 0001351  80.7641 195.3440 15.20154985  1306,6883.51,94.727,506.305,504.445,0.0
53567.0,STARLINK-4585,PAYLOAD,2022-11-10 22:00:00,15.19326417,0.0001398,53.2158,107.7043,62.8756,237.8899,-0.059786,-0.01176478,0.0,0 STARLINK-4585,1 53567U 22101AS  22314.91667824 -.01176478  00000-0 -59786-1 0  9999,2 53567  53.2158 107.7043 0001398  62.8756 237.8899 15.19326417  1308,6886.012,94.779,508.84,506.914,0.0
53567.0,STARLINK-4585,PAYLOAD,2022-11-11 06:00:00,15.18488833,0.0001246,53.2174,106.1828,65.31,259.1421,-0.059465,-0.01144571,0.0,0 STARLINK-4585,1 53567U 22101AS  22315.25001157 -.01144571  00000-0 -59465-1 0  9991,2 53567  53.2174 106.1828 0001246  65.3100 259.1421 15.18488833 13102,6888.544,94.831,511.267,509.551,0.0
53567.0,STARLINK-4585,PAYLOAD,2022-11-11 14:00:01,15.17695428,0.0001286999999999,53.2164,104.6653,74.1049,273.0325,-0.062513,-0.01173441,0.0,0 STARLINK-4585,1 53567U 22101AS  22315.58334491 -.01173441  00000-0 -62513-1 0  9993,2 53567  53.2164 104.6653 0001287  74.1049 273.0325 15.17695428  1301,6890.945,94.881,513.696,511.923,0.0
53567.0,STARLINK-4585,PAYLOAD,2022-11-11 22:00:00,15.16929977,0.0001175,53.2159,103.1505,55.3727,313.4551,-0.067591,-0.01235434,0.0,0 STARLINK-4585,1 53567U 22101AS  22315.91667824 -.01235434  00000-0 -67591-1 0  9991,2 53567  53.2159 103.1505 0001175  55.3727 313.4551 15.16929977  1303,6893.263000000001,94.929,515.937,514.318,0.0
53567.0,STARLINK-4585,PAYLOAD,2022-11-12 06:00:00,15.16066659,0.0001247,53.2165,101.6348,62.2414,327.3538,-0.065409,-0.011717,0.0,0 STARLINK-4585,1 53567U 22101AS  22316.25001157 -.01171700  00000-0 -65409-1 0  9991,2 53567  53.2165 101.6348 0001247  62.2414 327.3538 15.16066659 13253,6895.879,94.983,518.604,516.884,0.0
53567.0,STARLINK-4585,PAYLOAD,2022-11-12 14:00:01,15.15239057,0.0001206,53.2164,100.1231,73.9004,335.4625,-0.065752,-0.0115194999999999,0.0,0 STARLINK-4585,1 53567U 22101AS  22316.58334491 -.01151950  00000-0 -65752-1 0  9993,2 53567  53.2164 100.1231 0001206  73.9004 335.4625 15.15239057  1309,6898.39,95.035,521.087,519.423,0.0
53567.0,STARLINK-4585,PAYLOAD,2022-11-13 00:00:00,15.14224424,0.0001440999999999,53.2163,98.2362,64.8962,97.7926,-0.0679299999999999,-0.01155963,0.0,0 STARLINK-4585,1 53567U 22101AS  22317.00001157 -.01155963  00000-0 -67930-1 0  9999,2 53567  53.2163  98.2362 0001441  64.8962  97.7926 15.14224424  1306,6901.471,95.098,524.331,522.342,0.0
53567.0,STARLINK-4585,PAYLOAD,2022-11-13 06:00:02,15.13615147,0.0001353,53.2166,97.1039,62.8973,23.1172,-0.069196,-0.01157241,0.0,0 STARLINK-4585,1 53567U 22101AS  22317.25002315 -.01157241  00000-0 -69196-1 0  9990,2 53567  53.2166  97.1039 0001353  62.8973  23.1172 15.13615147 13405,6903.323,95.136,526.122,524.254,0.0
53567.0,STARLINK-4585,PAYLOAD,2022-11-13 14:00:01,15.12821867,0.0001341999999999,53.2163,95.5981,78.585,24.1834,-0.0725659999999999,-0.01184387,0.0,0 STARLINK-4585,1 53567U 22101AS  22317.58334491 -.01184387  00000-0 -72566-1 0  9995,2 53567  53.2163  95.5981 0001342  78.5850  24.1834 15.12821867  1305,6905.736,95.186,528.528,526.674,0.0
53567.0,STARLINK-4585,PAYLOAD,2022-11-13 22:00:00,15.12006566,0.0001462,53.2157,94.0944,61.246,57.3724,-0.074011,-0.01180946,0.0,0 STARLINK-4585,1 53567U 22101AS  22317.91667824 -.01180946  00000-0 -74011-1 0  9995,2 53567  53.2157  94.0944 0001462  61.2460  57.3724 15.12006566  1307,6908.218000000003,95.238,531.0930000000002,529.073,0.0
53567.0,STARLINK-4585,PAYLOAD,2022-11-14 14:00:01,15.10353442,0.0001472,53.2175,91.0907,65.1232,82.2763,-0.07527,-0.01149553,0.0,0 STARLINK-4585,1 53567U 22101AS  22318.58334491 -.01149553  00000-0 -75270-1 0  9997,2 53567  53.2175  91.0907 0001472  65.1232  82.2763 15.10353442 13606,6913.2580000000025,95.342,536.141,534.106,0.0
53567.0,STARLINK-4585,PAYLOAD,2022-11-14 22:00:00,15.09403264,0.0001366,53.2172,89.59200000000001,50.5049,109.8302,-0.042793,-0.00648447,0.0,0 STARLINK-4585,1 53567U 22101AS  22318.91667824 -.00648447  00000-0 -42793-1 0  9992,2 53567  53.2172  89.5920 0001366  50.5049 109.8302 15.09403264  1301,6916.159000000002,95.402,538.969,537.08,0.0
53567.0,STARLINK-4585,PAYLOAD,2022-11-15 06:00:00,15.08838816,0.000126,53.2172,88.0932,68.9244,103.4176,-0.00035394,-5.916e-05,0.0,0 STARLINK-4585,1 53567U 22101AS  22319.25001157 -.00005916  00000-0 -35394-3 0  9990,2 53567  53.2172  88.0932 0001260  68.9244 103.4176 15.08838816 13701,6917.884,95.438,540.621,538.877,0.0
53567.0,STARLINK-4585,PAYLOAD,2022-11-15 14:00:01,15.08878134,0.0001455,53.2116,86.595,62.0265,121.8707,-0.00085417,-0.00013871,0.0,0 STARLINK-4585,1 53567U 22101AS  22319.58334491 -.00013871  00000-0 -85417-3 0  9996,2 53567  53.2116  86.5950 0001455  62.0265 121.8707 15.08878134  1300,6917.764,95.435,540.635,538.622,0.0
53567.0,STARLINK-4585,PAYLOAD,2022-11-15 22:00:00,15.08906732,0.0001548,53.213,85.0985,57.7474,137.7774,-0.0039897,-0.00063342,0.0,0 STARLINK-4585,1 53567U 22101AS  22319.91667824 -.00063342  00000-0 -39897-2 0  9990,2 53567  53.2130  85.0985 0001548  57.7474 137.7774 15.08906732 13808,6917.676,95.433,540.612,538.471,0.0
53567.0,STARLINK-4585,PAYLOAD,2022-11-16 14:00:01,15.0871146,0.0001576999999999,53.2156,82.10700000000001,66.6873,152.1397,0.01197,0.00194846,0.0,0 STARLINK-4585,1 53567U 22101AS  22320.58335648  .00194846  00000-0  11970-1 0  9994,2 53567  53.2156  82.1070 0001577  66.6873 152.1397 15.08711460  1309,6918.273,95.446,541.229,539.047,0.0
53567.0,STARLINK-4585,PAYLOAD,2022-11-16 20:00:01,15.0887932,0.0001631,53.2162,80.9866,70.4281,66.9422,-0.0028264,-0.00045038,0.0,0 STARLINK-4585,1 53567U 22101AS  22320.83334491 -.00045038  00000-0 -28264-2 0  9992,2 53567  53.2162  80.9866 0001631  70.4281  66.9422 15.08879320 13946,6917.76,95.435,540.753,538.497,0.0
53567.0,STARLINK-4585,PAYLOAD,2022-11-16 22:00:08,15.08897792,0.0001589,53.2164,80.6119,73.0787,157.6323,-0.0058968,-0.00093072,0.0,0 STARLINK-4585,1 53567U 22101AS  22320.91675926 -.00093072  00000-0 -58968-2 0  9997,2 53567  53.2164  80.6119 0001589  73.0787 157.6323 15.08897792  1306,6917.704000000002,95.434,540.668,538.47,0.0
53567.0,STARLINK-4585,PAYLOAD,2022-11-17 06:00:00,15.08790734,0.0001593,53.2145,79.111,65.3556,176.4544,0.0027588,0.00043832,0.0,0 STARLINK-4585,1 53567U 22101AS  22321.25001157  .00043832  00000-0  27588-2 0  9995,2 53567  53.2145  79.1110 0001593  65.3556 176.4544 15.08790734 14005,6918.031,95.441,540.998,538.794,0.0
53567.0,STARLINK-4585,PAYLOAD,2022-11-17 14:00:01,15.08838306,0.0001756,53.2144,77.616,58.7916,194.6515,-0.00029349,-4.956e-05,0.0,0 STARLINK-4585,1 53567U 22101AS  22321.58334491 -.00004956  00000-0 -29349-3 0  9995,2 53567  53.2144  77.6160 0001756  58.7916 194.6515 15.08838306  1306,6917.886,95.438,540.965,538.536,0.0
53567.0,STARLINK-4585,PAYLOAD,2022-11-17 22:00:00,15.08859168,0.0001723,53.2145,76.1193,55.9661,209.0645,-0.00084681,-0.00013747,0.0,0 STARLINK-4585,1 53567U 22101AS  22321.91667824 -.00013747  00000-0 -84681-3 0  9999,2 53567  53.2145  76.1193 0001723  55.9661 209.0645 15.08859168  1301,6917.821999999999,95.436,540.879,538.495,0.0
53567.0,STARLINK-4585,PAYLOAD,2022-11-18 06:00:00,15.08842706,0.0001592,53.2148,74.6213,61.6656,214.9821,0.00033123,4.988e-05,0.0,0 STARLINK-4585,1 53567U 22101AS  22322.25001157  .00004988  00000-0  33123-3 0  9998,2 53567  53.2148  74.6213 0001592  61.6656 214.9821 15.08842706 14161,6917.871999999999,95.437,540.8380000000002,538.636,0.0
53567.0,STARLINK-4585,PAYLOAD,2022-11-18 14:00:01,15.08840723,0.0001701,53.2149,73.1265,55.4914,232.7305,-0.00017505,-3.073e-05,0.0,0 STARLINK-4585,1 53567U 22101AS  22322.58334491 -.00003073  00000-0 -17505-3 0  9996,2 53567  53.2149  73.1265 0001701  55.4914 232.7305 15.08840723  1307,6917.878000000002,95.438,540.92,538.566,0.0
53567.0,STARLINK-4585,PAYLOAD,2022-11-18 22:00:00,15.08865127,0.0001664,53.2149,71.6297,53.6139,246.2003,-0.0012036,-0.00019406,0.0,0 STARLINK-4585,1 53567U 22101AS  22322.91667824 -.00019406  00000-0 -12036-2 0  9992,2 53567  53.2149  71.6297 0001664  53.6139 246.2003 15.08865127  1302,6917.804,95.436,540.82,538.5169999999998,0.0
53567.0,STARLINK-4585,PAYLOAD,2022-11-19 14:00:01,15.08848806,0.0001781999999999,53.2153,68.6371,56.212,266.8475,-0.00010274,-1.923e-05,0.0,0 STARLINK-4585,1 53567U 22101AS  22323.58334491 -.00001923  00000-0 -10274-3 0  9995,2 53567  53.2153  68.6371 0001782  56.2120 266.8475 15.08848806 14362,6917.853,95.437,540.951,538.486,0.0
